start=new Date('2022-05-17T00:00:00.000Z').valueOf();
sats=[{"MEAN_MOTION_DDOT":"0.0000000000000","ARG_OF_PERICENTER":"46.3134","MEAN_MOTION_DOT":"0.00004201","EPOCH":"2022-05-16T09:37:26.609088","TIME_SYSTEM":"UTC","MEAN_MOTION":"15.06404232","SEMIMAJOR_AXIS":"6925.336","PERIOD":"95.592","ECCENTRICITY":"0.00019120","FILE":"3448591","EPHEMERIS_TYPE":"0","MEAN_ELEMENT_THEORY":"SGP4","APOAPSIS":"548.525","TLE_LINE1":"1 47643U 21012Z   22136.40100242  .00004201  00000-0  30070-3 0  9997","BSTAR":"0.00030070000000","ELEMENT_SET_NO":"999","CLASSIFICATION_TYPE":"U","REV_AT_EPOCH":"7026","COUNTRY_CODE":"US","PERIAPSIS":"545.876","OBJECT_TYPE":"PAYLOAD","TLE_LINE2":"2 47643  53.0547 186.3409 0001912  46.3134 313.8013 15.06404232 70266","SITE":"AFETR","RA_OF_ASC_NODE":"186.3409","RCS_SIZE":"LARGE","OBJECT_ID":"2021-012Z","REF_FRAME":"TEME","OBJECT_NAME":"STARLINK-2022","CENTER_NAME":"EARTH","GP_ID":"203697800","INCLINATION":"53.0547","LAUNCH_DATE":"2021-02-16","NORAD_CAT_ID":"47643","DECAY_DATE":null,"MEAN_ANOMALY":"313.8013"},{"REV_AT_EPOCH":"6950","COUNTRY_CODE":"US","PERIAPSIS":"546.100","OBJECT_TYPE":"PAYLOAD","BSTAR":"0.00003533800000","ELEMENT_SET_NO":"999","CLASSIFICATION_TYPE":"U","OBJECT_ID":"2021-012AA","REF_FRAME":"TEME","RCS_SIZE":"LARGE","OBJECT_NAME":"STARLINK-2026","RA_OF_ASC_NODE":"205.3867","TLE_LINE2":"2 47644  53.0538 205.3867 0001628  58.5103 301.6045 15.06395435 69501","SITE":"AFETR","INCLINATION":"53.0538","GP_ID":"203702604","LAUNCH_DATE":"2021-02-16","NORAD_CAT_ID":"47644","CENTER_NAME":"EARTH","MEAN_ANOMALY":"301.6045","DECAY_DATE":null,"MEAN_MOTION_DOT":"0.00000245","EPOCH":"2022-05-16T14:42:38.454912","TIME_SYSTEM":"UTC","MEAN_MOTION_DDOT":"0.0000000000000","ARG_OF_PERICENTER":"58.5103","MEAN_MOTION":"15.06395435","PERIOD":"95.592","ECCENTRICITY":"0.00016280","SEMIMAJOR_AXIS":"6925.363","TLE_LINE1":"1 47644U 21012AA  22136.61294508  .00000245  00000-0  35338-4 0  9997","APOAPSIS":"548.355","MEAN_ELEMENT_THEORY":"SGP4","FILE":"3448703","EPHEMERIS_TYPE":"0"},{"DECAY_DATE":null,"MEAN_ANOMALY":"298.9894","INCLINATION":"53.0545","GP_ID":"203703140","LAUNCH_DATE":"2021-02-16","NORAD_CAT_ID":"47645","CENTER_NAME":"EARTH","RCS_SIZE":"LARGE","OBJECT_ID":"2021-012AB","REF_FRAME":"TEME","OBJECT_NAME":"STARLINK-2027","SITE":"AFETR","TLE_LINE2":"2 47645  53.0545 174.4931 0001644  61.1260 298.9894 15.06397288 69946","RA_OF_ASC_NODE":"174.4931","REV_AT_EPOCH":"6994","COUNTRY_CODE":"US","PERIAPSIS":"546.083","OBJECT_TYPE":"PAYLOAD","BSTAR":"0.00007351700000","ELEMENT_SET_NO":"999","CLASSIFICATION_TYPE":"U","APOAPSIS":"548.360","TLE_LINE1":"1 47645U 21012AB  22136.81012336  .00000814  00000-0  73517-4 0  9990","FILE":"3448687","MEAN_ELEMENT_THEORY":"SGP4","EPHEMERIS_TYPE":"0","MEAN_MOTION":"15.06397288","SEMIMAJOR_AXIS":"6925.357","PERIOD":"95.592","ECCENTRICITY":"0.00016440","MEAN_MOTION_DOT":"0.00000814","TIME_SYSTEM":"UTC","EPOCH":"2022-05-16T19:26:34.658304","ARG_OF_PERICENTER":"61.1260","MEAN_MOTION_DDOT":"0.0000000000000"},{"DECAY_DATE":null,"MEAN_ANOMALY":"317.5358","CENTER_NAME":"EARTH","NORAD_CAT_ID":"47646","LAUNCH_DATE":"2021-02-16","GP_ID":"203703137","INCLINATION":"53.0544","TLE_LINE2":"2 47646  53.0544 139.8687 0002601  42.5832 317.5358 15.06402881 70425","SITE":"AFETR","RA_OF_ASC_NODE":"139.8687","OBJECT_NAME":"STARLINK-2028","RCS_SIZE":"LARGE","REF_FRAME":"TEME","OBJECT_ID":"2021-012AC","CLASSIFICATION_TYPE":"U","BSTAR":"0.00018091000000","ELEMENT_SET_NO":"999","PERIAPSIS":"545.403","COUNTRY_CODE":"US","OBJECT_TYPE":"PAYLOAD","REV_AT_EPOCH":"7042","FILE":"3448687","MEAN_ELEMENT_THEORY":"SGP4","EPHEMERIS_TYPE":"0","APOAPSIS":"549.006","TLE_LINE1":"1 47646U 21012AC  22136.73040428  .00002414  00000-0  18091-3 0  9998","SEMIMAJOR_AXIS":"6925.340","PERIOD":"95.592","ECCENTRICITY":"0.00026010","MEAN_MOTION":"15.06402881","MEAN_MOTION_DDOT":"0.0000000000000","ARG_OF_PERICENTER":"42.5832","EPOCH":"2022-05-16T17:31:46.929792","TIME_SYSTEM":"UTC","MEAN_MOTION_DOT":"0.00002414"},{"SITE":"AFETR","TLE_LINE2":"2 47647  53.0533 205.6435 0001572  51.1804 308.9325 15.06396537 70011","RA_OF_ASC_NODE":"205.6435","OBJECT_NAME":"STARLINK-2030","RCS_SIZE":"LARGE","OBJECT_ID":"2021-012AD","REF_FRAME":"TEME","CLASSIFICATION_TYPE":"U","ELEMENT_SET_NO":"999","BSTAR":"0.00009064700000","PERIAPSIS":"546.136","COUNTRY_CODE":"US","OBJECT_TYPE":"PAYLOAD","REV_AT_EPOCH":"7001","DECAY_DATE":null,"MEAN_ANOMALY":"308.9325","CENTER_NAME":"EARTH","NORAD_CAT_ID":"47647","INCLINATION":"53.0533","GP_ID":"203698300","LAUNCH_DATE":"2021-02-16","SEMIMAJOR_AXIS":"6925.359","ECCENTRICITY":"0.00015720","PERIOD":"95.592","MEAN_MOTION":"15.06396537","MEAN_MOTION_DDOT":"0.0000000000000","ARG_OF_PERICENTER":"51.1804","EPOCH":"2022-05-16T13:23:00.854592","TIME_SYSTEM":"UTC","MEAN_MOTION_DOT":"0.00001069","EPHEMERIS_TYPE":"0","FILE":"3448591","MEAN_ELEMENT_THEORY":"SGP4","APOAPSIS":"548.313","TLE_LINE1":"1 47647U 21012AD  22136.55764878  .00001069  00000-0  90647-4 0  9994"},{"REV_AT_EPOCH":"7029","COUNTRY_CODE":"US","PERIAPSIS":"545.969","OBJECT_TYPE":"PAYLOAD","BSTAR":"0.00007873700000","ELEMENT_SET_NO":"999","CLASSIFICATION_TYPE":"U","REF_FRAME":"TEME","OBJECT_ID":"2021-012AE","RCS_SIZE":"MEDIUM","OBJECT_NAME":"STARLINK-2031","RA_OF_ASC_NODE":"185.6818","TLE_LINE2":"2 47648  53.0537 185.6818 0001811  47.6553 312.4589 15.06396859 70294","SITE":"AFETR","INCLINATION":"53.0537","GP_ID":"203698041","LAUNCH_DATE":"2021-02-16","NORAD_CAT_ID":"47648","CENTER_NAME":"EARTH","MEAN_ANOMALY":"312.4589","DECAY_DATE":null,"MEAN_MOTION_DOT":"0.00000891","TIME_SYSTEM":"UTC","EPOCH":"2022-05-16T13:09:45.012096","MEAN_MOTION_DDOT":"0.0000000000000","ARG_OF_PERICENTER":"47.6553","MEAN_MOTION":"15.06396859","ECCENTRICITY":"0.00018110","PERIOD":"95.592","SEMIMAJOR_AXIS":"6925.358","TLE_LINE1":"1 47648U 21012AE  22136.54843764  .00000891  00000-0  78737-4 0  9994","APOAPSIS":"548.477","FILE":"3448591","MEAN_ELEMENT_THEORY":"SGP4","EPHEMERIS_TYPE":"0"},{"MEAN_MOTION_DDOT":"0.0000000000000","ARG_OF_PERICENTER":"43.5273","MEAN_MOTION_DOT":"0.00000542","TIME_SYSTEM":"UTC","EPOCH":"2022-05-16T10:03:58.557600","MEAN_MOTION":"15.06400758","ECCENTRICITY":"0.00018290","PERIOD":"95.592","SEMIMAJOR_AXIS":"6925.346","MEAN_ELEMENT_THEORY":"SGP4","FILE":"3448591","EPHEMERIS_TYPE":"0","TLE_LINE1":"1 47649U 21012AF  22136.41942775  .00000542  00000-0  55270-4 0  9993","APOAPSIS":"548.478","ELEMENT_SET_NO":"999","BSTAR":"0.00005527000000","CLASSIFICATION_TYPE":"U","REV_AT_EPOCH":"7027","COUNTRY_CODE":"US","OBJECT_TYPE":"PAYLOAD","PERIAPSIS":"545.945","RA_OF_ASC_NODE":"186.2584","SITE":"AFETR","TLE_LINE2":"2 47649  53.0547 186.2584 0001829  43.5273 316.5860 15.06400758 70275","OBJECT_ID":"2021-012AF","REF_FRAME":"TEME","RCS_SIZE":"LARGE","OBJECT_NAME":"STARLINK-2032","CENTER_NAME":"EARTH","GP_ID":"203697299","INCLINATION":"53.0547","LAUNCH_DATE":"2021-02-16","NORAD_CAT_ID":"47649","MEAN_ANOMALY":"316.5860","DECAY_DATE":null},{"FILE":"3448932","EPHEMERIS_TYPE":"0","MEAN_ELEMENT_THEORY":"SGP4","APOAPSIS":"548.482","TLE_LINE1":"1 47650U 21012AG  22136.60372384  .00001113  00000-0  93607-4 0  9990","ARG_OF_PERICENTER":"47.0364","MEAN_MOTION_DDOT":"0.0000000000000","MEAN_MOTION_DOT":"0.00001113","TIME_SYSTEM":"UTC","EPOCH":"2022-05-16T14:29:21.739776","MEAN_MOTION":"15.06401166","SEMIMAJOR_AXIS":"6925.345","PERIOD":"95.592","ECCENTRICITY":"0.00018370","CENTER_NAME":"EARTH","GP_ID":"203708948","LAUNCH_DATE":"2021-02-16","INCLINATION":"53.0536","NORAD_CAT_ID":"47650","DECAY_DATE":null,"MEAN_ANOMALY":"313.0779","ELEMENT_SET_NO":"999","BSTAR":"0.00009360700000","CLASSIFICATION_TYPE":"U","REV_AT_EPOCH":"6977","PERIAPSIS":"545.938","COUNTRY_CODE":"US","OBJECT_TYPE":"PAYLOAD","TLE_LINE2":"2 47650  53.0536 185.4313 0001837  47.0364 313.0779 15.06401166 69773","SITE":"AFETR","RA_OF_ASC_NODE":"185.4313","RCS_SIZE":"LARGE","OBJECT_ID":"2021-012AG","REF_FRAME":"TEME","OBJECT_NAME":"STARLINK-2033"},{"RA_OF_ASC_NODE":"205.2829","TLE_LINE2":"2 47651  53.0538 205.2829 0001518  51.2010 308.9115 15.06393213 69501","SITE":"AFETR","OBJECT_ID":"2021-012AH","REF_FRAME":"TEME","RCS_SIZE":"LARGE","OBJECT_NAME":"STARLINK-2035","ELEMENT_SET_NO":"999","BSTAR":"0.00007885800000","CLASSIFICATION_TYPE":"U","REV_AT_EPOCH":"6950","COUNTRY_CODE":"US","OBJECT_TYPE":"PAYLOAD","PERIAPSIS":"546.183","MEAN_ANOMALY":"308.9115","DECAY_DATE":null,"CENTER_NAME":"EARTH","LAUNCH_DATE":"2021-02-16","GP_ID":"203702652","INCLINATION":"53.0538","NORAD_CAT_ID":"47651","MEAN_MOTION":"15.06393213","ECCENTRICITY":"0.00015180","PERIOD":"95.593","SEMIMAJOR_AXIS":"6925.369","MEAN_MOTION_DDOT":"0.0000000000000","ARG_OF_PERICENTER":"51.2010","MEAN_MOTION_DOT":"0.00000893","TIME_SYSTEM":"UTC","EPOCH":"2022-05-16T15:18:26.239680","FILE":"3448704","MEAN_ELEMENT_THEORY":"SGP4","EPHEMERIS_TYPE":"0","TLE_LINE1":"1 47651U 21012AH  22136.63780370  .00000893  00000-0  78858-4 0  9997","APOAPSIS":"548.286"},{"TLE_LINE1":"1 47652U 21012AJ  22136.46550424  .00001562  00000-0  12378-3 0  9992","APOAPSIS":"548.447","FILE":"3448591","EPHEMERIS_TYPE":"0","MEAN_ELEMENT_THEORY":"SGP4","MEAN_MOTION":"15.06398065","PERIOD":"95.592","ECCENTRICITY":"0.00017730","SEMIMAJOR_AXIS":"6925.354","MEAN_MOTION_DOT":"0.00001562","TIME_SYSTEM":"UTC","EPOCH":"2022-05-16T11:10:19.566336","ARG_OF_PERICENTER":"45.5208","MEAN_MOTION_DDOT":"0.0000000000000","MEAN_ANOMALY":"314.5925","DECAY_DATE":null,"LAUNCH_DATE":"2021-02-16","GP_ID":"203698540","INCLINATION":"53.0533","NORAD_CAT_ID":"47652","CENTER_NAME":"EARTH","REF_FRAME":"TEME","OBJECT_ID":"2021-012AJ","RCS_SIZE":"LARGE","OBJECT_NAME":"STARLINK-2036","RA_OF_ASC_NODE":"206.0519","TLE_LINE2":"2 47652  53.0533 206.0519 0001773  45.5208 314.5925 15.06398065 69995","SITE":"AFETR","REV_AT_EPOCH":"6999","COUNTRY_CODE":"US","PERIAPSIS":"545.992","OBJECT_TYPE":"PAYLOAD","ELEMENT_SET_NO":"999","BSTAR":"0.00012378000000","CLASSIFICATION_TYPE":"U"}];
